BEIDOU-2 IGSO-1 (C06)   
1 36828U 10036A   24051.66402568 -.00000161  00000+0  00000+0 0  9993
2 36828  54.2476 170.6324 0039338 194.9137 131.2625  1.00260860 49703
BEIDOU-2 G4 (C04)       
1 37210U 10057A   24051.85887756 -.00000121  00000+0  00000+0 0  9995
2 37210   1.5654  66.8034 0006472 203.5002 349.2212  1.00271423 48784
BEIDOU-2 IGSO-2 (C07)   
1 37256U 10068A   24051.56892176 -.00000157  00000+0  00000+0 0  9996
2 37256  49.0927 282.2474 0031249 211.2611 328.5813  1.00288402 48285
BEIDOU-2 IGSO-3 (C08)   
1 37384U 11013A   24052.42110125 -.00000149  00000+0  00000+0 0  9993
2 37384  61.1885  48.2345 0027088 184.4293 177.6864  1.00288624 47188
BEIDOU-2 IGSO-4 (C09)   
1 37763U 11038A   24051.75036828 -.00000138  00000+0  00000+0 0  9991
2 37763  54.5552 173.2173 0119554 227.1239 115.3588  1.00283877 46141
BEIDOU-2 IGSO-5 (C10)   
1 37948U 11073A   24051.59177333 -.00000109  00000+0  00000+0 0  9992
2 37948  49.2230 281.9271 0093513 219.9909 316.4404  1.00278321 44906
BEIDOU-2 G5 (C05)       
1 38091U 12008A   24051.69544900  .00000046  00000+0  00000+0 0  9999
2 38091   2.1176  70.6061 0009085 231.0947 157.5620  1.00276328 43875
BEIDOU-2 M3 (C11)       
1 38250U 12018A   24051.33950138 -.00000109  00000+0  00000+0 0  9993
2 38250  56.4133 333.2622 0023065 268.0697  91.6830  1.86231351 80507
BEIDOU-2 M4 (C12)       
1 38251U 12018B   24051.27021156 -.00000108  00000+0  00000+0 0  9995
2 38251  56.3218 332.5451 0014166 274.2497  85.6060  1.86232133 80150
BEIDOU-2 M6 (C14)       
1 38775U 12050B   24049.36896761 -.00000039  00000+0  00000+0 0  9994
2 38775  55.8174  91.1685 0013568 327.1219  32.8578  1.86231097 77486
BEIDOU-2 G6 (C02)       
1 38953U 12059A   24052.48819571 -.00000183  00000+0  00000+0 0  9992
2 38953   2.2617  81.2776 0010666 294.1198  35.1865  1.00269181 41553
BEIDOU-3S IGSO-1S (C31) 
1 40549U 15019A   24051.74099791 -.00000161  00000+0  00000+0 0  9993
2 40549  50.7870 305.5749 0035274 193.1247  14.0417  1.00275317 32572
BEIDOU-3S M2S (C58)     
1 40748U 15037A   24050.39756894 -.00000109  00000+0  00000+0 0  9990
2 40748  55.5578 331.0692 0010183 266.7276  93.1739  1.86233132 58311
BEIDOU-3S M1S (C57)     
1 40749U 15037B   24051.20479602 -.00000107  00000+0  00000+0 0  9999
2 40749  55.5602 331.0286 0006739 337.7610  22.2291  1.86233033 58329
BEIDOU-3S IGSO-2S (C56) 
1 40938U 15053A   24051.55960667 -.00000074  00000+0  00000+0 0  9994
2 40938  50.5406 268.7724 0048170 187.4903 349.9554  1.00289899 30844
BEIDOU-2 IGSO-6 (C13)   
1 41434U 16021A   24049.96021663 -.00000126  00000+0  00000+0 0  9996
2 41434  59.0071  46.5511 0050892 225.0743 315.7170  1.00293158 28967
BEIDOU-2 G7 (C03)       
1 41586U 16037A   24051.92054699 -.00000363  00000+0  00000+0 0  9998
2 41586   1.6255  67.9428 0009654 316.8146 207.5255  1.00271329 28296
BEIDOU-3 M1 (C19)       
1 43001U 17069A   24052.35686791 -.00000008  00000+0  00000+0 0  9996
2 43001  55.9707  91.1491 0011838 294.9567  64.9957  1.86231509 42833
BEIDOU-3 M2 (C20)       
1 43002U 17069B   24052.29386528 -.00000009  00000+0  00000+0 0  9996
2 43002  55.9698  91.1876 0009226 312.9580  47.0398  1.86231151 42827
BEIDOU-3 M7 (C27)       
1 43107U 18003A   24052.04375356 -.00000105  00000+0  00000+0 0  9998
2 43107  55.0140 331.6555 0004124  48.8914 311.1647  1.86232488 41588
BEIDOU-3 M8 (C28)       
1 43108U 18003B   24051.44628652 -.00000108  00000+0  00000+0 0  9995
2 43108  55.0074 331.6622 0003755 281.2362  78.7406  1.86230914 41579
BEIDOU-3 M4 (C22)       
1 43207U 18018A   24052.42491667 -.00000008  00000+0  00000+0 0  9993
2 43207  55.9296  91.2400 0006016 332.2078  27.8357  1.86231440 40979
BEIDOU-3 M3 (C21)       
1 43208U 18018B   24051.41758787 -.00000019  00000+0  00000+0 0  9993
2 43208  55.9282  91.2779 0009322 303.3796  56.6029  1.86231527 40953
BEIDOU-3 M9 (C29)       
1 43245U 18029A   24052.17653971 -.00000101  00000+0  00000+0 0  9991
2 43245  54.9012 329.3694 0001455 326.9530  33.0624  1.86232731 40128
BEIDOU-3 M10 (C30)      
1 43246U 18029B   24051.03245192 -.00000106  00000+0  00000+0 0  9993
2 43246  54.8996 329.4374 0005048   0.5650 359.4567  1.86232764 40098
BEIDOU-2 IGSO-7 (C16)   
1 43539U 18057A   24051.69118424 -.00000168  00000+0  00000+0 0  9996
2 43539  55.1375 170.3947 0070720 231.1220 109.2253  1.00288905 20636
BEIDOU-3 M5 (C23)       
1 43581U 18062A   24050.71675557  .00000038  00000+0  00000+0 0  9991
2 43581  54.1509 211.1683 0001356 329.3758  30.5810  1.86228696 37837
BEIDOU-3 M6 (C24)       
1 43582U 18062B   24050.58312963  .00000040  00000+0  00000+0 0  9999
2 43582  54.1505 211.1623 0006559  39.9543 320.0592  1.86229551 37839
BEIDOU-3 M12 (C26)      
1 43602U 18067A   24051.59169830  .00000023  00000+0  00000+0 0  9993
2 43602  54.2394 209.7989 0007900  31.2772 328.7288  1.86231653 37335
BEIDOU-3 M11 (C25)      
1 43603U 18067B   24050.11473268  .00000046  00000+0  00000+0 0  9999
2 43603  54.2376 209.8148 0004621  28.1546 331.8360  1.86231509 37331
BEIDOU-3 M13 (C32)      
1 43622U 18072A   24052.22267841 -.00000010  00000+0  00000+0 0  9990
2 43622  55.8998  90.7819 0008447 290.0690  69.9148  1.86231306 36888
BEIDOU-3 M14 (C33)      
1 43623U 18072B   24051.55117695 -.00000017  00000+0  00000+0 0  9994
2 43623  55.9010  90.7973 0005808 308.2372  51.7826  1.86231265 36867
BEIDOU-3 M16 (C35)      
1 43647U 18078A   24050.10356639 -.00000109  00000+0  00000+0 0  9991
2 43647  54.7993 329.5498 0008204   9.8515 350.1838  1.86232270 36351
BEIDOU-3 M15 (C34)      
1 43648U 18078B   24051.30660990 -.00000105  00000+0  00000+0 0  9999
2 43648  54.7942 329.5115 0005232  15.5546 344.4831  1.86232124 36399
BEIDOU-3 G1 (C59)       
1 43683U 18085A   24051.99808417 -.00000288  00000+0  00000+0 0  9991
2 43683   1.9078 114.6613 0002134 318.6188 216.4983  1.00272149 19557
BEIDOU-3 M17 (C36)      
1 43706U 18093A   24050.91827768  .00000035  00000+0  00000+0 0  9996
2 43706  54.2334 211.0912 0006411 289.8919  70.0028  1.86228322 35747
BEIDOU-3 M18 (C37)      
1 43707U 18093B   24050.24759739  .00000046  00000+0  00000+0 0  9997
2 43707  54.2345 211.1058 0005838 333.4870  26.4497  1.86229803 35724
BEIDOU-3 IGSO-1 (C38)   
1 44204U 19023A   24050.75322750 -.00000192  00000+0  00000+0 0  9992
2 44204  57.4709  46.4603 0021022 216.2379 276.8555  1.00284845 17837
BEIDOU-2 G8 (C01)       
1 44231U 19027A   24051.92733476 -.00000258  00000+0  00000+0 0  9990
2 44231   1.6584  73.0268 0003684 184.6091  11.0612  1.00269586 17585
BEIDOU-3 IGSO-2 (C39)   
1 44337U 19035A   24051.70771919 -.00000176  00000+0  00000+0 0  9995
2 44337  55.1696 166.2993 0032011 203.3666 154.9403  1.00277733 17165
BEIDOU-3 M24 (C46)      
1 44542U 19061A   24051.39187634  .00000029  00000+0  00000+0 0  9998
2 44542  54.4603 211.3385 0008231  11.5373 348.4434  1.86231269 30001
BEIDOU-3 M23 (C45)      
1 44543U 19061B   24051.24887826  .00000031  00000+0  00000+0 0  9996
2 44543  54.4597 211.3122 0004864   9.4423 166.7628  1.86231639 30000
BEIDOU-3 IGSO-3 (C40)   
1 44709U 19073A   24051.05945021 -.00000151  00000+0  00000+0 0  9998
2 44709  56.2476 289.9738 0035010 180.6442 179.4394  1.00285623 15950
BEIDOU-3 M22 (C44)      
1 44793U 19078A   24052.31156374 -.00000101  00000+0  00000+0 0  9996
2 44793  54.6459 329.4198 0007133  15.6032 344.4434  1.86232096 28888
BEIDOU-3 M21 (C43)      
1 44794U 19078B   24051.90471846 -.00000102  00000+0  00000+0 0  9996
2 44794  54.6198 329.4125 0005109   7.7456 352.2857  1.86232625 28875
BEIDOU-3 M19 (C41)      
1 44864U 19090A   24051.61657576 -.00000017  00000+0  00000+0 0  9997
2 44864  55.8337  90.9793 0019446 278.0989  82.0210  1.86231769 28447
BEIDOU-3 M20 (C42)      
1 44865U 19090B   24050.66781071 -.00000027  00000+0  00000+0 0  9991
2 44865  55.8346  91.0441 0017155 289.8626 243.9175  1.86231657 28414
BEIDOU-3 G2 (C60)       
1 45344U 20017A   24052.12931432 -.00000149  00000+0  00000+0 0  9991
2 45344   2.1834  24.6925 0002660 276.0628 336.3548  1.00271538 14771
BEIDOU-3 G3 (C61)       
1 45807U 20040A   24051.96298678 -.00000363  00000+0  00000+0 0  9998
2 45807   0.6182  22.8433 0009451 293.3817 291.2886  1.00266974 13574
BEIDOU-3 G4             
1 56564U 23066A   24051.93046757 -.00000120  00000+0  00000+0 0  9998
2 56564   2.4163 288.2129 0002432 209.7047 147.4117  1.00270903  2915
BEIDOU-3 M25            
1 58654U 23207A   24051.98753145 -.00000015  00000+0  00000+0 0  9991
2 58654  55.0150  91.0649 0004686 273.5397  86.4799  1.86232187  1063
BEIDOU-3 M26            
1 58655U 23207B   24052.32317939 -.00000012  00000+0  00000+0 0  9995
2 58655  55.0172  91.0387 0005613 260.9544  99.0565  1.86231660  1057
